ONEWEB-0395             
1 50475U 21132G   25364.16968814 -.00000410  00000+0 -11937-2 0  9992
2 50475  87.8832  54.7294 0001669 107.7855 252.3455 13.11415832193564
ONEWEB-0396             
1 50476U 21132H   25364.26603457  .00000101  00000+0  22289-3 0  9991
2 50476  87.9172   8.9942 0001857  92.1666 267.9679 13.18687521199378
ONEWEB-0397             
1 50477U 21132J   25364.28086424 -.00000209  00000+0 -56314-3 0  9990
2 50477  87.9174   8.9918 0001994  90.4317 269.7043 13.18684980199359
ONEWEB-0398             
1 50478U 21132K   25364.13749694  .00000545  00000+0  15011-2 0  9999
2 50478  87.8844  54.7104 0001408 109.2140 250.9141 13.11417724193451
ONEWEB-0399             
1 50479U 21132L   25364.20022139  .00000321  00000+0  87091-3 0  9996
2 50479  87.8841  54.7107 0002250 107.1111 253.0264 13.11417474193455
ONEWEB-0400             
1 50480U 21132M   25364.25942363  .00000018  00000+0  11661-4 0  9997
2 50480  87.9174   8.9857 0001580  92.5449 267.5864 13.18687620199345
ONEWEB-0401             
1 50481U 21132N   25364.07635116  .00000029  00000+0  40617-4 0  9998
2 50481  87.9172   9.0186 0001900  85.6323 274.5026 13.18686273199320
ONEWEB-0402             
1 50482U 21132P   25364.26767491  .00000200  00000+0  47323-3 0  9993
2 50482  87.9170   8.9728 0002206  77.3379 282.7999 13.18698966199375
